start=new Date('2023-01-25T00:00:00.000Z').valueOf();
sats=[{"APOAPSIS":"540.712","CLASSIFICATION_TYPE":"U","REF_FRAME":"TEME","PERIAPSIS":"538.667","TIME_SYSTEM":"UTC","RCS_SIZE":"LARGE","DECAY_DATE":null,"OBJECT_ID":"2021-104AZ","MEAN_MOTION_DOT":"0.00021012","TLE_LINE2":"2 49455  53.2137 299.2567 0001478  68.1215 291.9935 15.08858377 67668","OBJECT_NAME":"STARLINK-3145","MEAN_MOTION":"15.08858377","ECCENTRICITY":"0.00014780","REV_AT_EPOCH":"6766","LAUNCH_DATE":"2021-11-13","COUNTRY_CODE":"US","TLE_LINE1":"1 49455U 21104AZ  23024.13977521  .00021012  00000-0  13337-2 0  9996","BSTAR":"0.00133370000000","EPHEMERIS_TYPE":"0","GP_ID":"223631274","ELEMENT_SET_NO":"999","INCLINATION":"53.2137","SEMIMAJOR_AXIS":"6917.824","RA_OF_ASC_NODE":"299.2567","NORAD_CAT_ID":"49455","MEAN_ANOMALY":"291.9935","FILE":"3759646","EPOCH":"2023-01-24T03:21:16.578144","ARG_OF_PERICENTER":"68.1215","PERIOD":"95.436","MEAN_ELEMENT_THEORY":"SGP4","SITE":"AFETR","OBJECT_TYPE":"PAYLOAD","MEAN_MOTION_DDOT":"0.0000000000000","CENTER_NAME":"EARTH"},{"REF_FRAME":"TEME","CLASSIFICATION_TYPE":"U","APOAPSIS":"540.670","PERIAPSIS":"538.809","OBJECT_ID":"2021-104BA","DECAY_DATE":null,"RCS_SIZE":"LARGE","TIME_SYSTEM":"UTC","TLE_LINE2":"2 49456  53.2152 296.5439 0001345  82.0559 278.0586 15.08841911 67757","MEAN_MOTION_DOT":"0.00003221","LAUNCH_DATE":"2021-11-13","REV_AT_EPOCH":"6775","ECCENTRICITY":"0.00013450","MEAN_MOTION":"15.08841911","OBJECT_NAME":"STARLINK-3124","COUNTRY_CODE":"US","TLE_LINE1":"1 49456U 21104BA  23024.74329711  .00003221  00000-0  22036-3 0  9995","BSTAR":"0.00022036000000","ELEMENT_SET_NO":"999","GP_ID":"223638356","EPHEMERIS_TYPE":"0","INCLINATION":"53.2152","RA_OF_ASC_NODE":"296.5439","SEMIMAJOR_AXIS":"6917.875","NORAD_CAT_ID":"49456","MEAN_ANOMALY":"278.0586","FILE":"3760025","EPOCH":"2023-01-24T17:50:20.870304","SITE":"AFETR","PERIOD":"95.437","MEAN_ELEMENT_THEORY":"SGP4","ARG_OF_PERICENTER":"82.0559","CENTER_NAME":"EARTH","MEAN_MOTION_DDOT":"0.0000000000000","OBJECT_TYPE":"PAYLOAD"},{"COUNTRY_CODE":"US","LAUNCH_DATE":"2021-11-13","REV_AT_EPOCH":"6766","ECCENTRICITY":"0.00012550","MEAN_MOTION":"15.08859959","OBJECT_NAME":"STARLINK-3132","BSTAR":"0.00120860000000","TLE_LINE1":"1 49457U 21104BB  23024.13609501  .00019010  00000-0  12086-2 0  9993","PERIAPSIS":"538.816","REF_FRAME":"TEME","CLASSIFICATION_TYPE":"U","APOAPSIS":"540.553","TLE_LINE2":"2 49457  53.2136 299.2741 0001255 112.9180 247.1945 15.08859959 67666","MEAN_MOTION_DOT":"0.00019010","OBJECT_ID":"2021-104BB","DECAY_DATE":null,"RCS_SIZE":"LARGE","TIME_SYSTEM":"UTC","EPOCH":"2023-01-24T03:15:58.608864","FILE":"3759303","CENTER_NAME":"EARTH","MEAN_MOTION_DDOT":"0.0000000000000","OBJECT_TYPE":"PAYLOAD","SITE":"AFETR","PERIOD":"95.436","MEAN_ELEMENT_THEORY":"SGP4","ARG_OF_PERICENTER":"112.9180","INCLINATION":"53.2136","ELEMENT_SET_NO":"999","EPHEMERIS_TYPE":"0","GP_ID":"223622995","NORAD_CAT_ID":"49457","MEAN_ANOMALY":"247.1945","SEMIMAJOR_AXIS":"6917.819","RA_OF_ASC_NODE":"299.2741"},{"COUNTRY_CODE":"US","LAUNCH_DATE":"2021-11-13","REV_AT_EPOCH":"6766","ECCENTRICITY":"0.00011450","MEAN_MOTION":"15.08844061","OBJECT_NAME":"STARLINK-3156","BSTAR":"0.00060739000000","TLE_LINE1":"1 49458U 21104BC  23024.07721564  .00009393  00000-0  60739-3 0  9993","PERIAPSIS":"538.941","REF_FRAME":"TEME","CLASSIFICATION_TYPE":"U","APOAPSIS":"540.525","TLE_LINE2":"2 49458  53.2151 299.5291 0001145 106.4662 253.6456 15.08844061 67665","MEAN_MOTION_DOT":"0.00009393","OBJECT_ID":"2021-104BC","RCS_SIZE":"LARGE","DECAY_DATE":null,"TIME_SYSTEM":"UTC","EPOCH":"2023-01-24T01:51:11.431296","FILE":"3759730","CENTER_NAME":"EARTH","MEAN_MOTION_DDOT":"0.0000000000000","OBJECT_TYPE":"PAYLOAD","SITE":"AFETR","PERIOD":"95.437","MEAN_ELEMENT_THEORY":"SGP4","ARG_OF_PERICENTER":"106.4662","INCLINATION":"53.2151","ELEMENT_SET_NO":"999","EPHEMERIS_TYPE":"0","GP_ID":"223632353","NORAD_CAT_ID":"49458","MEAN_ANOMALY":"253.6456","SEMIMAJOR_AXIS":"6917.868","RA_OF_ASC_NODE":"299.5291"},{"INCLINATION":"53.2125","ELEMENT_SET_NO":"999","GP_ID":"223623093","EPHEMERIS_TYPE":"0","NORAD_CAT_ID":"49459","MEAN_ANOMALY":"248.9365","RA_OF_ASC_NODE":"299.5920","SEMIMAJOR_AXIS":"6917.873","EPOCH":"2023-01-24T01:35:17.655648","FILE":"3759301","CENTER_NAME":"EARTH","MEAN_MOTION_DDOT":"0.0000000000000","OBJECT_TYPE":"PAYLOAD","SITE":"AFETR","PERIOD":"95.437","MEAN_ELEMENT_THEORY":"SGP4","ARG_OF_PERICENTER":"111.1759","PERIAPSIS":"538.883","REF_FRAME":"TEME","CLASSIFICATION_TYPE":"U","APOAPSIS":"540.593","TLE_LINE2":"2 49459  53.2125 299.5920 0001236 111.1759 248.9365 15.08842473 67657","MEAN_MOTION_DOT":"0.00009936","OBJECT_ID":"2021-104BD","DECAY_DATE":null,"RCS_SIZE":"LARGE","TIME_SYSTEM":"UTC","COUNTRY_CODE":"US","LAUNCH_DATE":"2021-11-13","REV_AT_EPOCH":"6765","ECCENTRICITY":"0.00012360","MEAN_MOTION":"15.08842473","OBJECT_NAME":"STARLINK-3141","BSTAR":"0.00064141000000","TLE_LINE1":"1 49459U 21104BD  23024.06617657  .00009936  00000-0  64141-3 0  9994"},{"ARG_OF_PERICENTER":"77.7695","SITE":"AFETR","PERIOD":"95.436","MEAN_ELEMENT_THEORY":"SGP4","OBJECT_TYPE":"PAYLOAD","CENTER_NAME":"EARTH","MEAN_MOTION_DDOT":"0.0000000000000","FILE":"3759596","EPOCH":"2023-01-24T03:05:22.574400","SEMIMAJOR_AXIS":"6917.814","RA_OF_ASC_NODE":"299.3082","NORAD_CAT_ID":"49460","MEAN_ANOMALY":"282.3420","ELEMENT_SET_NO":"999","GP_ID":"223629980","EPHEMERIS_TYPE":"0","INCLINATION":"53.2142","TLE_LINE1":"1 49460U 21104BE  23024.12873350  .00016757  00000-0  10678-2 0  9991","BSTAR":"0.00106780000000","ECCENTRICITY":"0.00011010","MEAN_MOTION":"15.08861782","OBJECT_NAME":"STARLINK-3140","LAUNCH_DATE":"2021-11-13","REV_AT_EPOCH":"6767","COUNTRY_CODE":"US","TIME_SYSTEM":"UTC","OBJECT_ID":"2021-104BE","RCS_SIZE":"LARGE","DECAY_DATE":null,"MEAN_MOTION_DOT":"0.00016757","TLE_LINE2":"2 49460  53.2142 299.3082 0001101  77.7695 282.3420 15.08861782 67672","CLASSIFICATION_TYPE":"U","APOAPSIS":"540.440","REF_FRAME":"TEME","PERIAPSIS":"538.917"},{"REV_AT_EPOCH":"6456","LAUNCH_DATE":"2021-12-02","OBJECT_NAME":"STARLINK-3219","ECCENTRICITY":"0.00011280","MEAN_MOTION":"15.08846502","COUNTRY_CODE":"US","TLE_LINE1":"1 49724U 21115A   23024.83900886  .00001950  00000-0  14057-3 0  9994","BSTAR":"0.00014057000000","REF_FRAME":"TEME","APOAPSIS":"540.506","CLASSIFICATION_TYPE":"U","PERIAPSIS":"538.945","RCS_SIZE":"LARGE","DECAY_DATE":null,"OBJECT_ID":"2021-115A","TIME_SYSTEM":"UTC","TLE_LINE2":"2 49724  53.2144 226.1148 0001128  90.0346 270.0775 15.08846502 64563","MEAN_MOTION_DOT":"0.00001950","FILE":"3760214","EPOCH":"2023-01-24T20:08:10.365504","MEAN_ELEMENT_THEORY":"SGP4","PERIOD":"95.437","SITE":"AFETR","ARG_OF_PERICENTER":"90.0346","MEAN_MOTION_DDOT":"0.0000000000000","CENTER_NAME":"EARTH","OBJECT_TYPE":"PAYLOAD","EPHEMERIS_TYPE":"0","GP_ID":"223642599","ELEMENT_SET_NO":"999","INCLINATION":"53.2144","SEMIMAJOR_AXIS":"6917.861","RA_OF_ASC_NODE":"226.1148","NORAD_CAT_ID":"49724","MEAN_ANOMALY":"270.0775"},{"APOAPSIS":"540.622","CLASSIFICATION_TYPE":"U","REF_FRAME":"TEME","PERIAPSIS":"538.847","TIME_SYSTEM":"UTC","RCS_SIZE":"LARGE","DECAY_DATE":null,"OBJECT_ID":"2021-115B","MEAN_MOTION_DOT":"0.00002600","TLE_LINE2":"2 49725  53.2127 226.2711 0001283  94.8731 265.2407 15.08843426 64564","OBJECT_NAME":"STARLINK-3218","ECCENTRICITY":"0.00012830","MEAN_MOTION":"15.08843426","REV_AT_EPOCH":"6456","LAUNCH_DATE":"2021-12-02","COUNTRY_CODE":"US","TLE_LINE1":"1 49725U 21115B   23024.80589150  .00002600  00000-0  18136-3 0  9994","BSTAR":"0.00018136000000","EPHEMERIS_TYPE":"0","GP_ID":"223637913","ELEMENT_SET_NO":"999","INCLINATION":"53.2127","RA_OF_ASC_NODE":"226.2711","SEMIMAJOR_AXIS":"6917.870","NORAD_CAT_ID":"49725","MEAN_ANOMALY":"265.2407","FILE":"3760006","EPOCH":"2023-01-24T19:20:29.025600","ARG_OF_PERICENTER":"94.8731","PERIOD":"95.437","MEAN_ELEMENT_THEORY":"SGP4","SITE":"AFETR","OBJECT_TYPE":"PAYLOAD","MEAN_MOTION_DDOT":"0.0000000000000","CENTER_NAME":"EARTH"},{"TLE_LINE1":"1 49726U 21115C   23023.83984678 -.00004865  00000-0 -28786-3 0  9990","BSTAR":"-0.00028786000000","OBJECT_NAME":"STARLINK-3237","MEAN_MOTION":"15.08828846","ECCENTRICITY":"0.00015960","REV_AT_EPOCH":"6427","LAUNCH_DATE":"2021-12-02","COUNTRY_CODE":"US","TIME_SYSTEM":"UTC","DECAY_DATE":null,"RCS_SIZE":"LARGE","OBJECT_ID":"2021-115C","MEAN_MOTION_DOT":"-0.00004865","TLE_LINE2":"2 49726  53.2133 240.6016 0001596  94.2630 265.8544 15.08828846 64274","APOAPSIS":"540.884","CLASSIFICATION_TYPE":"U","REF_FRAME":"TEME","PERIAPSIS":"538.675","ARG_OF_PERICENTER":"94.2630","MEAN_ELEMENT_THEORY":"SGP4","PERIOD":"95.438","SITE":"AFETR","OBJECT_TYPE":"PAYLOAD","MEAN_MOTION_DDOT":"0.0000000000000","CENTER_NAME":"EARTH","FILE":"3759168","EPOCH":"2023-01-23T20:09:22.761792","SEMIMAJOR_AXIS":"6917.914","RA_OF_ASC_NODE":"240.6016","NORAD_CAT_ID":"49726","MEAN_ANOMALY":"265.8544","GP_ID":"223621344","EPHEMERIS_TYPE":"0","ELEMENT_SET_NO":"999","INCLINATION":"53.2133"},{"COUNTRY_CODE":"US","LAUNCH_DATE":"2021-12-02","REV_AT_EPOCH":"6435","ECCENTRICITY":"0.00009590","MEAN_MOTION":"15.08834463","OBJECT_NAME":"STARLINK-3242","BSTAR":"0.00028643000000","TLE_LINE1":"1 49727U 21115D   23024.37345690  .00004273  00000-0  28643-3 0  9999","PERIAPSIS":"539.099","REF_FRAME":"TEME","CLASSIFICATION_TYPE":"U","APOAPSIS":"540.426","TLE_LINE2":"2 49727  53.2130 238.2064 0000959  94.7062 265.4039 15.08834463 64350","MEAN_MOTION_DOT":"0.00004273","OBJECT_ID":"2021-115D","RCS_SIZE":"LARGE","DECAY_DATE":null,"TIME_SYSTEM":"UTC","EPOCH":"2023-01-24T08:57:46.676160","FILE":"3759756","CENTER_NAME":"EARTH","MEAN_MOTION_DDOT":"0.0000000000000","OBJECT_TYPE":"PAYLOAD","SITE":"AFETR","MEAN_ELEMENT_THEORY":"SGP4","PERIOD":"95.438","ARG_OF_PERICENTER":"94.7062","INCLINATION":"53.2130","ELEMENT_SET_NO":"999","EPHEMERIS_TYPE":"0","GP_ID":"223633647","NORAD_CAT_ID":"49727","MEAN_ANOMALY":"265.4039","RA_OF_ASC_NODE":"238.2064","SEMIMAJOR_AXIS":"6917.897"}];
